STARLINK-31505          
1 59237U 24049G   26068.41606508  .00001744  00000+0  72801-4 0  9994
2 59237  43.0013 145.1422 0001486 273.5446  86.5236 15.27615839112368
FLOCK 4G-7              
1 62624U 25009R   26068.79996108  .00011422  00000+0  43168-3 0  9991
2 62624  97.3984 150.8270 0001396 336.9783  23.1393 15.27141471 63725
